#dV2018 10  3  0  0  0.00000000    8640 U+u   IGS14 FIT TUD 
## 2021 259200.00000000    10.00000000 58394 0.0000000000000
+    1   L47  0  0  0  0  0  0  0  0  0  0  0  0  0  0  0  0                          
+          0  0  0  0  0  0  0  0  0  0  0  0  0  0  0  0  0                          
+          0  0  0  0  0  0  0  0  0  0  0  0  0  0  0  0  0                          
+          0  0  0  0  0  0  0  0  0  0  0  0  0  0  0  0  0                          
+          0  0  0  0  0  0  0  0  0  0  0  0  0  0  0  0  0                          
++         0  0  0  0  0  0  0  0  0  0  0  0  0  0  0  0  0                          
++         0  0  0  0  0  0  0  0  0  0  0  0  0  0  0  0  0                          
++         0  0  0  0  0  0  0  0  0  0  0  0  0  0  0  0  0                          
++         0  0  0  0  0  0  0  0  0  0  0  0  0  0  0  0  0                          
++         0  0  0  0  0  0  0  0  0  0  0  0  0  0  0  0  0                          
%c M  cc GPS ccc cccc cccc cccc cccc ccccc ccccc ccccc ccccc                          
%c cc cc ccc ccc cccc cccc cccc cccc ccccc ccccc ccccc ccccc                          
%f  0.0000000  0.000000000  0.00000000000  0.000000000000000                          
%f  0.0000000  0.000000000  0.00000000000  0.000000000000000                          
%i    0    0    0    0      0      0      0      0         0                          
%i    0    0    0    0      0      0      0      0         0                          
/* Created by: RDOD_AR_WGT                                                            
/* Setup     : SWARMA.18.276_RDOD_AR.inp                                              
/* Executed  : 02-Jun-2021 22:33 UTC, by swarmgen@euclid2.lr.tudelft.nl               
/*                                                                                    
*  2018 10 03 09 02 40.00000000                             
PL47  4021.0914858  2608.6790435 -4855.1421560 999999.999999
VL47-46306.3359759-28220.4169271-53563.0032670 999999.999999
*  2018 10 03 09 02 50.00000000                             
PL47  3974.5147345  2580.3304494 -4908.3991425 999999.999999
VL47-46846.2527044-28476.0459130-52949.8644910 999999.999999
*  2018 10 03 09 03 00.00000000                             
PL47  3927.4008201  2551.7284066 -4961.0396874 999999.999999
VL47-47380.6501755-28727.3101730-52330.1330278 999999.999999
*  2018 10 03 09 03 10.00000000                             
PL47  3879.7552978  2522.8772915 -5013.0572373 999999.999999
VL47-47909.4567295-28974.1870562-51703.8877476 999999.999999
*  2018 10 03 09 03 20.00000000                             
PL47  3831.5837940  2493.7815022 -5064.4453181 999999.999999
VL47-48432.6012501-29216.6548626-51071.2083067 999999.999999
*  2018 10 03 09 03 30.00000000                             
PL47  3782.8920061  2464.4454585 -5115.1975360 999999.999999
VL47-48950.0134411-29454.6924404-50432.1751157 999999.999999
*  2018 10 03 09 03 40.00000000                             
PL47  3733.6857012  2434.8736008 -5165.3075775 999999.999999
VL47-49461.6235794-29688.2795703-49786.8693100 999999.999999
*  2018 10 03 09 03 50.00000000                             
PL47  3683.9707158  2405.0703896 -5214.7692110 999999.999999
VL47-49967.3630188-29917.3961820-49135.3727261 999999.999999
*  2018 10 03 09 04 00.00000000                             
PL47  3633.7529547  2375.0403050 -5263.5762869 999999.999999
VL47-50467.1636422-30142.0231787-48477.7678903 999999.999999
*  2018 10 03 09 04 10.00000000                             
PL47  3583.0383907  2344.7878458 -5311.7227384 999999.999999
VL47-50960.9578568-30362.1424316-47814.1380157 999999.999999
*  2018 10 03 09 04 20.00000000                             
PL47  3531.8330633  2314.3175287 -5359.2025825 999999.999999
VL47-51448.6791246-30577.7359688-47144.5670061 999999.999999
*  2018 10 03 09 04 30.00000000                             
PL47  3480.1430787  2283.6338881 -5406.0099202 999999.999999
VL47-51930.2615016-30788.7866985-46469.1394602 999999.999999
*  2018 10 03 09 04 40.00000000                             
PL47  3427.9746084  2252.7414750 -5452.1389377 999999.999999
VL47-52405.6396688-30995.2783866-45787.9406715 999999.999999
*  2018 10 03 09 04 50.00000000                             
PL47  3375.3338889  2221.6448564 -5497.5839065 999999.999999
VL47-52874.7493752-31197.1950162-45101.0566211 999999.999999
*  2018 10 03 09 05 00.00000000                             
PL47  3322.2272204  2190.3486150 -5542.3391847 999999.999999
VL47-53337.5269633-31394.5215381-44408.5739645 999999.999999
*  2018 10 03 09 05 10.00000000                             
PL47  3268.6609667  2158.8573480 -5586.3992173 999999.999999
VL47-53793.9093870-31587.2438653-43710.5800133 999999.999999
*  2018 10 03 09 05 20.00000000                             
PL47  3214.6415540  2127.1756667 -5629.7585369 999999.999999
VL47-54243.8347124-31775.3481254-43007.1627156 999999.999999
*  2018 10 03 09 05 30.00000000                             
PL47  3160.1754701  2095.3081955 -5672.4117645 999999.999999
VL47-54687.2416926-31958.8213158-42298.4106360 999999.999999
*  2018 10 03 09 05 40.00000000                             
PL47  3105.2692636  2063.2595718 -5714.3536097 999999.999999
VL47-55124.0697897-32137.6512676-41584.4129357 999999.999999
*  2018 10 03 09 05 50.00000000                             
PL47  3049.9295433  2031.0344447 -5755.5788717 999999.999999
VL47-55554.2595645-32311.8260576-40865.2593560 999999.999999
*  2018 10 03 09 06 00.00000000                             
PL47  2994.1629768  1998.6374751 -5796.0824398 999999.999999
VL47-55977.7522266-32481.3346784-40141.0402069 999999.999999
*  2018 10 03 09 06 10.00000000                             
PL47  2937.9762906  1966.0733341 -5835.8592939 999999.999999
VL47-56394.4896385-32646.1670305-39411.8463591 999999.999999
*  2018 10 03 09 06 20.00000000                             
PL47  2881.3762683  1933.3467031 -5874.9045048 999999.999999
VL47-56804.4147730-32806.3132402-38677.7692384 999999.999999
*  2018 10 03 09 06 30.00000000                             
PL47  2824.3697506  1900.4622727 -5913.2132353 999999.999999
VL47-57207.4712872-32961.7643110-37938.9008201 999999.999999
*  2018 10 03 09 06 40.00000000                             
PL47  2766.9636338  1867.4247423 -5950.7807402 999999.999999
VL47-57603.6037354-33112.5118199-37195.3336203 999999.999999
*  2018 10 03 09 06 50.00000000                             
PL47  2709.1648694  1834.2388194 -5987.6023672 999999.999999
VL47-57992.7573907-33258.5481985-36447.1606864 999999.999999
*  2018 10 03 09 07 00.00000000                             
PL47  2650.9804631  1800.9092187 -6023.6735575 999999.999999
VL47-58374.8786375-33399.8661716-35694.4755842 999999.999999
*  2018 10 03 09 07 10.00000000                             
PL47  2592.4174739  1767.4406620 -6058.9898457 999999.999999
VL47-58749.9145756-33536.4593565-34937.3723821 999999.999999
*  2018 10 03 09 07 20.00000000                             
PL47  2533.4830132  1733.8378768 -6093.5468611 999999.999999
VL47-59117.8130304-33668.3222592-34175.9456341 999999.999999
*  2018 10 03 09 07 30.00000000                             
PL47  2474.1842440  1700.1055960 -6127.3403275 999999.999999
VL47-59478.5229548-33795.4496855-33410.2903611 999999.999999
*  2018 10 03 09 07 40.00000000                             
PL47  2414.5283802  1666.2485574 -6160.3660641 999999.999999
VL47-59831.9940793-33917.8372607-32640.5020323 999999.999999
*  2018 10 03 09 07 50.00000000                             
PL47  2354.5226853  1632.2715026 -6192.6199858 999999.999999
VL47-60178.1769287-34035.4813901-31866.6765472 999999.999999
*  2018 10 03 09 08 00.00000000                             
PL47  2294.1744719  1598.1791768 -6224.0981036 999999.999999
VL47-60517.0231203-34148.3788129-31088.9102202 999999.999999
*  2018 10 03 09 08 10.00000000                             
PL47  2233.4911005  1563.9763280 -6254.7965249 999999.999999
VL47-60848.4849987-34256.5271024-30307.2997764 999999.999999
*  2018 10 03 09 08 20.00000000                             
PL47  2172.4799790  1529.6677062 -6284.7114541 999999.999999
VL47-61172.5156323-34359.9246522-29521.9423566 999999.999999
*  2018 10 03 09 08 30.00000000                             
PL47  2111.1485616  1495.2580628 -6313.8391931 999999.999999
VL47-61489.0691776-34458.5701588-28732.9355301 999999.999999
*  2018 10 03 09 08 40.00000000                             
PL47  2049.5043480  1460.7521501 -6342.1761414 999999.999999
VL47-61798.1005590-34552.4631176-27940.3772969 999999.999999
*  2018 10 03 09 08 50.00000000                             
PL47  1987.5548826  1426.1547207 -6369.7187967 999999.999999
VL47-62099.5656530-34641.6035999-27144.3660722 999999.999999
*  2018 10 03 09 09 00.00000000                             
PL47  1925.3077533  1391.4705268 -6396.4637555 999999.999999
VL47-62393.4211564-34725.9924543-26345.0006587 999999.999999
*  2018 10 03 09 09 10.00000000                             
PL47  1862.7705909  1356.7043193 -6422.4077130 999999.999999
VL47-62679.6248677-34805.6309026-25542.3802228 999999.999999
*  2018 10 03 09 09 20.00000000                             
PL47  1799.9510679  1321.8608478 -6447.5474641 999999.999999
VL47-62958.1353664-34880.5209511-24736.6042935 999999.999999
*  2018 10 03 09 09 30.00000000                             
PL47  1736.8568981  1286.9448592 -6471.8799031 999999.999999
VL47-63228.9120134-34950.6653744-23927.7727804 999999.999999
*  2018 10 03 09 09 40.00000000                             
PL47  1673.4958351  1251.9610978 -6495.4020245 999999.999999
VL47-63491.9152743-35016.0672972-23115.9859944 999999.999999
*  2018 10 03 09 09 50.00000000                             
PL47  1609.8756716  1216.9143042 -6518.1109235 999999.999999
VL47-63747.1064923-35076.7305716-22301.3446512 999999.999999
EOF                                                         
